COSMOS 2361 [-]         
1 25590U 98076A   17288.41621316  .00000026  00000-0  12664-4 0  9992
2 25590  82.9380  27.1207 0030238 270.2807 134.4342 13.72939220942435
COSMOS 2378 [-]         
1 26818U 01023A   17288.41798924  .00000067  00000-0  55436-4 0  9991
2 26818  82.9304  48.2870 0031850 222.5952 137.2741 13.73918172820047
COSMOS 2389 [-]         
1 27436U 02026A   17288.76287358  .00000030  00000-0  15202-4 0  9991
2 27436  82.9533 351.9901 0047780  94.5850  44.6760 13.74918458772035
COSMOS 2398 [-]         
1 27818U 03023A   17288.42757040  .00000017  00000-0  14519-5 0  9992
2 27818  82.9473 308.3182 0032716 107.6282 252.8441 13.72148698719429
COSMOS 2407 [+]         
1 28380U 04028A   17288.84163652  .00000025  00000-0  91471-5 0  9990
2 28380  82.9583 258.9988 0040606 104.9131 255.6535 13.76045147664591
COSMOS 2414 [+]         
1 28521U 05002A   17288.77446722  .00000114  00000-0  82974-4 0  9990
2 28521  82.9472 277.6493 0040427 357.9260   2.1740 13.87591879645006
COSMOS 2429 [-]         
1 32052U 07038A   17288.37199494  .00000011  00000-0 -51560-5 0  9997
2 32052  82.9845  19.2261 0039780  77.7915 282.7692 13.74894251506566
COSMOS 2454 [-]         
1 35635U 09039A   17288.79094861  .00000027  00000-0  88780-5 0  9998
2 35635  82.9531 267.1624 0018719 321.7965  38.1873 13.89617677417804
COSMOS 2463 [+]         
1 36519U 10017A   17288.61676466  .00000023  00000-0  86878-5 0  9998
2 36519  82.9619  55.6919 0034815 275.4341  84.2846 13.71416840373979
